******** Week 938 almanac for PRN-20 ********
ID:                         20
Health:                     000
Eccentricity:               5.2301457617E-004
Time of Applicability(s):       0.0000
Orbital Inclination(rad):   0.9764811070
Rate of Right Ascen(r/s):  -6.3674080853E-009
SQRT(A)  (m 1/2):           5282.629353
Right Ascen at Week(rad):   1.6025695557E-002
Argument of Perigee(rad):  -0.472254989
Mean Anom(rad):            -2.2074022788E+000
Af0(s):                     1.3849930838E-006
Af1(s/s):                  -3.4815705874E-011
week:                        938

******** Week 938 almanac for PRN-21 ********
ID:                         21
Health:                     000
Eccentricity:               4.9272354227E-004
Time of Applicability(s):       0.0000
Orbital Inclination(rad):   0.9757636261
Rate of Right Ascen(r/s):  -6.3513359872E-009
SQRT(A)  (m 1/2):           5282.627205
Right Ascen at Week(rad):   1.7135121427E-002
Argument of Perigee(rad):  -0.788947631
Mean Anom(rad):             2.0783413081E+000
Af0(s):                    -9.6630828921E-004
Af1(s/s):                   1.4717116414E-012
week:                        938

******** Week 938 almanac for PRN-22 ********
ID:                         22
Health:                     000
Eccentricity:               3.9811688475E-004
Time of Applicability(s):       0.0000
Orbital Inclination(rad):   0.9757728425
Rate of Right Ascen(r/s):  -6.4156243794E-009
SQRT(A)  (m 1/2):           5282.629234
Right Ascen at Week(rad):   1.7058011015E-002
Argument of Perigee(rad):   0.382380620
Mean Anom(rad):             1.6876698879E+000
Af0(s):                    -1.7496268265E-004
Af1(s/s):                   1.4704681917E-011
week:                        938

******** Week 938 almanac for PRN-23 ********
ID:                         23
Health:                     000
Eccentricity:               2.4810153991E-004
Time of Applicability(s):       0.0000
Orbital Inclination(rad):   0.9449578513
Rate of Right Ascen(r/s):  -6.7056364595E-009
SQRT(A)  (m 1/2):           5282.651745
Right Ascen at Week(rad):   2.1101167767E+000
Argument of Perigee(rad):   0.695768862
Mean Anom(rad):             2.5138589150E+000
Af0(s):                    -7.9941505101E-004
Af1(s/s):                   5.5280224842E-012
week:                        938

******** Week 938 almanac for PRN-24 ********
ID:                         24
Health:                     000
Eccentricity:               8.6898915470E-004
Time of Applicability(s):       0.0000
Orbital Inclination(rad):   0.9449506961
Rate of Right Ascen(r/s):  -6.7327804473E-009
SQRT(A)  (m 1/2):           5282.637800
Right Ascen at Week(rad):   2.1099336706E+000
Argument of Perigee(rad):   0.835062469
Mean Anom(rad):            -2.3473851998E+000
Af0(s):                     7.2152027860E-004
Af1(s/s):                   3.6473934983E-011
week:                        938

******** Week 938 almanac for PRN-25 ********
ID:                         25
Health:                     000
Eccentricity:               6.2489823904E-004
Time of Applicability(s):       0.0000
Orbital Inclination(rad):   0.9464276992
Rate of Right Ascen(r/s):  -6.7063507750E-009
SQRT(A)  (m 1/2):           5282.626698
Right Ascen at Week(rad):   2.0860331807E+000
Argument of Perigee(rad):   0.777329875
Mean Anom(rad):            -3.0989345914E+000
Af0(s):                     2.8510624543E-004
Af1(s/s):                   8.8942186949E-012
week:                        938

******** Week 938 almanac for PRN-26 ********
ID:                         26
Health:                     000
Eccentricity:               9.5323228743E-004
Time of Applicability(s):       0.0000
Orbital Inclination(rad):   0.9464785078
Rate of Right Ascen(r/s):  -6.7202799266E-009
SQRT(A)  (m 1/2):           5282.622013
Right Ascen at Week(rad):   2.0866351232E+000
Argument of Perigee(rad):   0.718269201
Mean Anom(rad):            -1.4733283053E+000
Af0(s):                    -2.2451998666E-004
Af1(s/s):                  -5.3876902939E-012
week:                        938

******** Week 938 almanac for PRN-27 ********
ID:                         27
Health:                     000
Eccentricity:               4.8389553558E-004
Time of Applicability(s):       0.0000
Orbital Inclination(rad):   0.9606589238
Rate of Right Ascen(r/s):  -7.3556635358E-009
SQRT(A)  (m 1/2):           5282.621010
Right Ascen at Week(rad):  -2.0696601050E+000
Argument of Perigee(rad):   1.113850765
Mean Anom(rad):            -8.6992997779E-001
Af0(s):                     2.4651421700E-004
Af1(s/s):                   5.4649618164E-012
week:                        938

******** Week 938 almanac for PRN-28 ********
ID:                         28
Health:                     000
Eccentricity:               2.7494074311E-004
Time of Applicability(s):       0.0000
Orbital Inclination(rad):   0.9605369077
Rate of Right Ascen(r/s):  -7.4042369876E-009
SQRT(A)  (m 1/2):           5282.633764
Right Ascen at Week(rad):  -2.0698968797E+000
Argument of Perigee(rad):  -1.611234547
Mean Anom(rad):             2.5674565864E+000
Af0(s):                     1.8665648531E-004
Af1(s/s):                   4.3645087544E-012
week:                        938

******** Week 938 almanac for PRN-30 ********
ID:                         30
Health:                     000
Eccentricity:               4.3695583008E-004
Time of Applicability(s):       0.0000
Orbital Inclination(rad):   0.9587142083
Rate of Right Ascen(r/s):  -7.3099473458E-009
SQRT(A)  (m 1/2):           5282.614918
Right Ascen at Week(rad):  -2.1089067358E+000
Argument of Perigee(rad):   0.208772343
Mean Anom(rad):            -6.9952608637E-001
Af0(s):                    -1.1321390048E-005
Af1(s/s):                  -1.3429257706E-012
week:                        938

******** Week 938 almanac for PRN-32 ********
ID:                         32
Health:                     000
Eccentricity:               3.8726546336E-004
Time of Applicability(s):       0.0000
Orbital Inclination(rad):   0.9752539294
Rate of Right Ascen(r/s):  -6.3738369245E-009
SQRT(A)  (m 1/2):           5282.627789
Right Ascen at Week(rad):   8.9743645840E-003
Argument of Perigee(rad):  -1.219404355
Mean Anom(rad):            -6.2799255512E-001
Af0(s):                    -5.4573256057E-004
Af1(s/s):                  -3.8866687646E-012
week:                        938

******** Week 938 almanac for PRN-33 ********
ID:                         33
Health:                     000
Eccentricity:               2.0635768305E-004
Time of Applicability(s):       0.0000
Orbital Inclination(rad):   0.9752856147
Rate of Right Ascen(r/s):  -6.4284820578E-009
SQRT(A)  (m 1/2):           5282.630541
Right Ascen at Week(rad):   8.8500648236E-003
Argument of Perigee(rad):  -0.153279029
Mean Anom(rad):            -1.1905235668E-001
Af0(s):                    -9.4191054814E-004
Af1(s/s):                  -2.7533531011E-014
week:                        938

******** Week 938 almanac for PRN-34 ********
ID:                         34
Health:                     000
Eccentricity:               4.7061394434E-004
Time of Applicability(s):       0.0000
Orbital Inclination(rad):   0.9568769397
Rate of Right Ascen(r/s):  -7.3435201728E-009
SQRT(A)  (m 1/2):           5282.621756
Right Ascen at Week(rad):  -2.1073637507E+000
Argument of Perigee(rad):   0.470570785
Mean Anom(rad):             2.1160258306E+000
Af0(s):                     3.3149158116E-004
Af1(s/s):                   8.0930817603E-012
week:                        938

******** Week 938 almanac for PRN-35 ********
ID:                         35
Health:                     000
Eccentricity:               7.5689877849E-004
Time of Applicability(s):       0.0000
Orbital Inclination(rad):   0.9569504645
Rate of Right Ascen(r/s):  -7.3395914377E-009
SQRT(A)  (m 1/2):           5282.624313
Right Ascen at Week(rad):  -2.1074221928E+000
Argument of Perigee(rad):   0.288919730
Mean Anom(rad):            -2.4748807019E+000
Af0(s):                     4.7380221076E-004
Af1(s/s):                  -8.7050366915E-012
week:                        938

******** Week 938 almanac for PRN-36 ********
ID:                         36
Health:                     000
Eccentricity:               4.6768004540E-004
Time of Applicability(s):       0.0000
Orbital Inclination(rad):   0.9464004275
Rate of Right Ascen(r/s):  -6.6967075162E-009
SQRT(A)  (m 1/2):           5282.651424
Right Ascen at Week(rad):   2.1088135654E+000
Argument of Perigee(rad):  -0.934973103
Mean Anom(rad):             1.7870063382E+000
Af0(s):                    -8.0934027210E-005
Af1(s/s):                   1.5044854251E-011
week:                        938

******** Week 938 almanac for PRN-37 ********
ID:                         37
Health:                     000
Eccentricity:               5.7562359143E-004
Time of Applicability(s):       0.0000
Orbital Inclination(rad):   0.9464131402
Rate of Right Ascen(r/s):  -6.6984933048E-009
SQRT(A)  (m 1/2):           5282.638607
Right Ascen at Week(rad):   2.1086697694E+000
Argument of Perigee(rad):  -0.094990317
Mean Anom(rad):             2.5070973442E+000
Af0(s):                    -9.3160022516E-004
Af1(s/s):                   5.7109872387E-013
week:                        938

